satname,norad_id,inclination_deg,eccentricity,mean_motion_rev_per_day,perigee_km,apogee_km,l1,l2
STARLINK-1376,45570,53.056,0.0001455,15.06397755,546.2107993321742,548.2260777647916,1 45570U 20025AR  25303.31669232  .00000151  00000+0  29028-4 0  9996,2 45570  53.0560 311.8879 0001455  84.9869 275.1286 15.06397755305713
STARLINK-1320,45572,53.057,0.0008991,15.42709361,431.98849421885734,444.2454821404017,1 45572U 20025AT  25303.91668980  .00131611  00000+0  29243-2 0  9996,2 45572  53.0570 252.7002 0008991  20.5275 192.7732 15.42709361  5937
STARLINK-1321,45573,53.0553,0.0001473,15.06367858,546.2899519371576,548.3301886440659,1 45573U 20025AU  25303.23653610 -.00004200  00000+0 -26343-3 0  9990,2 45573  53.0553 302.2466 0001473  96.1819 263.9338 15.06367858305549
STARLINK-1328,45576,53.0506,0.0010368,15.67714952,358.45012508930813,372.4336102292864,1 45576U 20025AX  25303.91668980  .00257437  00000+0  22353-2 0  9990,2 45576  53.0506 275.7718 0010368  38.9400 142.5201 15.67714952  6005
STARLINK-1331,45578,53.055,0.0001817,15.06412355,545.9153629488101,548.4320208542467,1 45578U 20025AZ  25303.21439529  .00001583  00000+0  12512-3 0  9996,2 45578  53.0550 302.3485 0001817  66.0816 294.0364 15.06412355305859
STARLINK-1333,45580,53.054,0.0001462,15.0642295,546.1287447108552,548.1536960624971,1 45580U 20025BB  25303.28718207  .00001506  00000+0  11992-3 0  9995,2 45580  53.0540 312.0157 0001462  92.7145 267.4011 15.06422950305712
STARLINK-1335,45581,53.0555,0.0001431,15.06390284,546.250314599055,548.2323578788873,1 45581U 20025BC  25303.29180277 -.00004307  00000+0 -27051-3 0  9994,2 45581  53.0555 301.9989 0001431  95.0544 265.0609 15.06390284305850
STARLINK-1337,45582,53.0557,0.000148,15.06389249,546.2195519375755,548.2694648640618,1 45582U 20025BD  25303.31393239  .00000840  00000+0  75333-4 0  9995,2 45582  53.0557 301.9013 0001480  94.3502 265.7656 15.06389249305859
STARLINK-1347,45586,53.056,0.0007919,15.31316014,466.4603443676706,477.3094090159757,1 45586U 20025BH  25303.67085029  .00098916  00000+0  31926-2 0  9992,2 45586  53.0560 285.9592 0007919   1.8212 358.2816 15.31316014306107
STARLINK-1360,45588,53.0437,0.0005736,15.75069421,340.5775766246552,348.28970966647194,1 45588U 20025BK  25303.75615965  .00129988  00000+0  84463-3 0  9990,2 45588  53.0437 204.4297 0005736 123.4588 236.6979 15.75069421307264
STARLINK-1364,45589,53.0558,0.0001454,15.0639026,546.2344597755218,548.2483598170902,1 45589U 20025BL  25303.31762389  .00000112  00000+0  26450-4 0  9996,2 45589  53.0558 301.8874 0001454  89.9677 270.1479 15.06390260305853
STARLINK-1365,45590,53.0556,0.0001354,15.0639226,546.297584618369,548.1729754318003,1 45590U 20025BM  25303.26692845  .00001018  00000+0  87214-4 0  9992,2 45590  53.0556 332.1088 0001354  92.0565 268.0579 15.06392260305441
STARLINK-1443,45660,53.0552,0.0001588,15.06393217,546.1325982820608,548.3320955866466,1 45660U 20035D   25303.25218917  .00002118  00000+0  16109-3 0  9990,2 45660  53.0552 292.1778 0001588  93.7637 266.3534 15.06393217299079
STARLINK-1446,45663,53.0263,0.0001143,15.33416415,464.8459822828836,466.4104670132374,1 45663U 20035G   25303.15130667  .00071868  00000+0  21846-2 0  9998,2 45663  53.0263 255.7965 0001143  36.3818 323.7260 15.33416415299570
STARLINK-1448,45665,53.0545,0.000142,15.06395018,546.243425429373,548.2102287562675,1 45665U 20035J   25303.25587396 -.00000160  00000+0  81237-5 0  9997,2 45665  53.0545 292.1548 0001420  92.8786 267.2366 15.06395018299064
STARLINK-1451,45668,53.054,0.0001426,15.06396588,546.2344590510229,548.2095714421712,1 45668U 20035M   25303.25959928 -.00000134  00000+0  99126-5 0  9991,2 45668  53.0540 292.4614 0001426  86.7565 273.3587 15.06396588299079
STARLINK-1452,45669,53.0425,0.0011165,15.26262818,479.331127994541,494.66097009305486,1 45669U 20035N   25303.18482782  .00091460  00000+0  34476-2 0  9998,2 45669  53.0425 273.9433 0011165  14.9953 345.1374 15.26262818299320
STARLINK-1453,45670,53.0539,0.0001517,15.06398685,546.1650122391811,548.2661642144494,1 45670U 20035P   25303.86680977  .00000940  00000+0  82003-4 0  9995,2 45670  53.0539 259.4172 0001517  90.2210 269.8953 15.06398685299471
STARLINK-1454,45671,53.0559,0.0001452,15.06388254,546.2419921326491,548.2531238082829,1 45671U 20035Q   25303.28168368  .00000516  00000+0  53571-4 0  9994,2 45671  53.0559 292.0475 0001452  94.9697 265.1458 15.06388254299066
STARLINK-1456,45673,53.0549,0.0001384,15.06393751,546.2722393983595,548.1891811805681,1 45673U 20035S   25303.29641976  .00000731  00000+0  67964-4 0  9998,2 45673  53.0549 291.9798 0001384  87.0595 273.0552 15.06393751299080
STARLINK-1457,45674,53.0545,0.0001481,15.06743883,545.132318467934,547.1832945896285,1 45674U 20035T   25303.23689179  .00032322  00000+0  21588-2 0  9991,2 45674  53.0545 292.2394 0001481 110.0252 250.0897 15.06743883299046
STARLINK-1458,45675,53.0543,0.0001327,15.0639685,546.3022172166529,548.1402072861838,1 45675U 20035U   25303.29273850  .00002187  00000+0  16571-3 0  9996,2 45675  53.0543 291.9931 0001327  93.9795 266.1346 15.06396850299043
STARLINK-1460,45676,53.0551,0.0001515,15.06398402,546.1672645339322,548.2656466309745,1 45676U 20035V   25303.26325677 -.00000039  00000+0  16251-4 0  9990,2 45676  53.0551 292.1259 0001515  90.5156 269.6007 15.06398402299038
STARLINK-1392,45677,53.0554,0.000159,15.0638737,546.1491307641736,548.3514039151887,1 45677U 20035W   25303.67237375 -.00004490  00000+0 -28279-3 0  9991,2 45677  53.0554 290.2909 0001590  91.2338 268.8833 15.06387370299137
STARLINK-1394,45679,53.0536,0.0001652,15.06402101,546.0610521653552,548.3491852013685,1 45679U 20035Y   25303.66962345  .00002931  00000+0  21560-3 0  9996,2 45679  53.0536 280.3024 0001652  95.1691 264.9486 15.06402101299277
STARLINK-1402,45685,53.0528,0.0001775,15.26599727,484.7675748103411,487.2043384599465,1 45685U 20035AE  25303.91668980  .00042404  00000+0  16022-2 0  9994,2 45685  53.0528 272.0336 0001775 107.1669  81.2691 15.26599727  5843
STARLINK-1404,45686,53.055,0.0001486,15.06398254,546.1878015910715,548.2460167728805,1 45686U 20035AF  25303.23099324  .00000226  00000+0  34062-4 0  9992,2 45686  53.0550 282.2706 0001486  94.0198 266.0961 15.06398254299212
STARLINK-1413,45689,53.0564,0.0001464,15.06389829,546.2288551711963,548.2566063563636,1 45689U 20035AJ  25303.24943386  .00000882  00000+0  78091-4 0  9990,2 45689  53.0564 282.1884 0001464  97.8594 262.2561 15.06389829299125
STARLINK-1417,45693,53.0557,0.0001489,15.06395324,546.1947027076731,548.2570757760886,1 45693U 20035AN  25303.24574130  .00000320  00000+0  40354-4 0  9990,2 45693  53.0557 282.2081 0001489  94.9951 265.1208 15.06395324299200
STARLINK-1420,45695,53.055,0.0001764,15.06399028,545.9929049687635,548.4361689910093,1 45695U 20035AQ  25303.84375627  .00001074  00000+0  90992-4 0  9998,2 45695  53.0550 259.5102 0001764 100.0363 260.0825 15.06399028299583
STARLINK-1422,45696,53.0547,0.0001518,15.06395842,546.1730317931397,548.275571484317,1 45696U 20035AR  25303.19044470 -.00001009  00000+0 -48840-4 0  9991,2 45696  53.0547 282.4586 0001518 103.3353 256.7806 15.06395842299191
STARLINK-1351,45697,53.0539,0.000132,15.06432509,546.1977914692116,548.026057185235,1 45697U 20035AS  25303.16649398  .00017935  00000+0  12188-2 0  9996,2 45697  53.0539 262.5612 0001320  91.6072 268.5068 15.06432509299485
STARLINK-1398,45699,53.05,0.0004927,15.50987864,410.49414032717505,417.1869550026431,1 45699U 20035AU  25303.74098624  .00122575  00000+0  20513-2 0  9990,2 45699  53.0500 219.8876 0004927 102.7883 257.3676 15.50987864300136
STARLINK-1400,45700,53.0536,0.0001347,15.06393621,546.2982616392792,548.1639558077704,1 45700U 20035AV  25303.20704391  .00002028  00000+0  15505-3 0  9995,2 45700  53.0536 262.3800 0001347  83.9425 276.1718 15.06393621299487
STARLINK-1403,45701,53.0554,0.0001538,15.06395705,546.1596008931901,548.2898421587315,1 45701U 20035AW  25303.17017561  .00000744  00000+0  68820-4 0  9990,2 45701  53.0554 262.5453 0001538  98.3764 261.7399 15.06395705299471
STARLINK-1407,45703,53.0388,0.0011853,15.41033998,434.97120888031714,451.14152988177193,1 45703U 20035AY  25303.06076471  .00095322  00000+0  22506-2 0  9990,2 45703  53.0388 221.9995 0011853  54.4632 305.7476 15.41033998300049
STARLINK-1411,45706,53.0525,0.0002514,15.40488453,442.9514492027847,446.3819549041782,1 45706U 20035BB  25303.91668980  .00143149  00000+0  34223-2 0  9999,2 45706  53.0525 245.0900 0002514 111.0663 266.1696 15.40488453  5917
STARLINK-1423,45710,53.0546,0.0001331,15.06403313,546.2796415474613,548.1231666306294,1 45710U 20035BF  25303.85944234  .00000363  00000+0  43230-4 0  9996,2 45710  53.0546 259.4511 0001331  90.2670 269.8472 15.06403313299588
STARLINK-1433,45711,53.0533,0.0001667,15.06401875,546.0513566926365,548.360265985938,1 45711U 20035BG  25303.17754210 -.00001232  00000+0 -63838-4 0  9999,2 45711  53.0533 262.5082 0001667  90.2709 269.8471 15.06401875299476
STARLINK-1434,45712,53.0488,0.0005581,15.15372146,515.9992218635834,523.6987538232142,1 45712U 20035BH  25303.14862806  .00052432  00000+0  27413-2 0  9991,2 45712  53.0488 258.8844 0005581  58.8635 301.2905 15.15372146299535
STARLINK-1465,45731,53.055,0.0001742,15.06408797,545.9782055093692,548.390987553601,1 45731U 20038B   25303.14435938  .00001627  00000+0  12805-3 0  9997,2 45731  53.0550 102.6572 0001742  90.3934 269.7255 15.06408797296511
STARLINK-1471,45735,53.0512,0.0001337,15.4080446,442.8217167533858,444.64588500553964,1 45735U 20038F   25302.99707503  .00025334  00000+0  61671-3 0  9999,2 45735  53.0512  43.9682 0001337 138.1699 221.9408 15.40804460297337
STARLINK-1474,45738,53.0384,0.0003654,15.66572528,366.2546738573783,371.1852769349971,1 45738U 20038J   25303.31456680  .00086530  00000+0  80857-3 0  9998,2 45738  53.0384   0.0158 0003654 330.4388  29.6420 15.66572528297977
